{"version": 0.6, "generator": "Overpass API 0.7.58.5 b0c4acbb", "osm3s": {"timestamp_osm_base": "2022-09-01T12:27:28Z", "timestamp_areas_base": "2022-07-20T10:48:09Z", "copyright": "The data included in this document is from www.openstreetmap.org. The data is made available under ODbL."}, "elements": [{"type": "node", "id": 307958451, "lat": 48.1183041, "lon": 7.8468557, "tags": {"name": "Stadtwerke Emmendingen", "office": "energy_supplier", "wheelchair": "yes"}}, {"type": "node", "id": 839235828, "lat": 48.7913893, "lon": 9.2016154, "tags": {"name": "Netze BW", "office": "energy_supplier", "website": "https://www.netze-bw.de/"}}, {"type": "node", "id": 1668945741, "lat": 49.2355896, "lon": 9.0871865, "tags": {"addr:city": "Bad Rappenau", "addr:country": "DE", "addr:housenumber": "36", "addr:postcode": "74906", "addr:street": "Raiffeisenstra\u00dfe", "description": "Au\u00dfenstelle Bad Rappenau", "fax": "+49 7264 919249", "name": "S\u00fcwag Energie AG", "office": "energy_supplier", "phone": "+49 7264 91920", "wheelchair": "limited"}}, {"type": "node", "id": 2514134899, "lat": 48.0427756, "lon": 7.8671571, "tags": {"description": "Strom, Erdgas, Wasser", "name": "GWG Gemeindewerke Gundelfingen GmbH", "office": "energy_supplier", "opening_hours": "Mo-Fr 08:00-13:00; Mo,Tu,Th 14:00-16:00; We 14:00-18:00; PH off", "phone": "+49 800 2767767", "website": "https://www.gwg-gundelfingen.de/"}}, {"type": "node", "id": 2820023266, "lat": 49.45468, "lon": 8.4825648, "tags": {"name": "Berufsgenossenschaft der Bauwirtschaft", "office": "quango", "website": "https://www.bgbau.de/", "wheelchair": "yes", "wheelchair:description": "Eingang ok, Lift vorhanden"}}, {"type": "node", "id": 4088879484, "lat": 48.4937659, "lon": 9.1880505, "tags": {"addr:city": "Reutlingen", "addr:country": "DE", "addr:housenumber": "89", "addr:postcode": "72762", "addr:street": "Hauffstra\u00dfe", "contact:email": "info@fairenergie.de", "contact:fax": "+49 7121 5823598", "contact:phone": "+49 7121 5820", "contact:website": "http://www.fairenergie.de", "name": "FairEnergie", "office": "energy_supplier", "opening_hours": "Mo-Th 07:30-17:30; Fr 07:30-13:00", "opening_hours:lastcheck": "2016-03-31", "ref:vatin": "DE197553266"}}, {"type": "node", "id": 4088879803, "lat": 48.4938379, "lon": 9.1878359, "tags": {"addr:city": "Reutlingen", "addr:country": "DE", "addr:housenumber": "89", "addr:postcode": "72762", "addr:street": "Hauffstra\u00dfe", "contact:email": "info@stadtwerke-reutlingen.de", "contact:fax": "+49 7121 5823598", "contact:phone": "+49 7121 5820", "contact:website": "http://www.stadtwerke-reutlingen.de", "name": "Stadtwerke Reutlingen", "office": "energy_supplier", "opening_hours": "Mo-Th 07:30-17:30; Fr 07:30-13:00", "opening_hours:lastcheck": "2016-03-31"}}, {"type": "node", "id": 4702120215, "lat": 48.7914668, "lon": 9.2017805, "tags": {"name": "Stuttgart Netze Betrieb", "office": "energy_supplier", "website": "https://stadtwerke-stuttgart.de/stuttgart-netze/"}}, {"type": "node", "id": 5044662044, "lat": 48.0667474, "lon": 8.4597693, "tags": {"addr:city": "Villingen-Schwenningen", "addr:housenumber": "1", "addr:postcode": "78048", "addr:street": "Pforzheimer Stra\u00dfe", "fax": "+49 7721 40504869", "name": "Stadtwerke Villingen-Schwenningen", "office": "energy_supplier", "opening_hours": "Mo-Th 08:00-16:30; Fr 08:00-13:00; PH off", "phone": "+49 7721 40505", "website": "https://www.svs-energie.de/"}}, {"type": "node", "id": 5200662748, "lat": 49.0337937, "lon": 8.7020597, "tags": {"email": "info@uea-kreiska.de", "fax": "+49 721 936 99601", "name": "Umwelt- und Energieagentur Kreis Karlsruhe", "office": "energy_supplier", "operator": "Umwelt- und Energieagentur Kreis Karlsruhe Gesellschaft mit begrenzter Haftung", "phone": "+49 721 936 99600", "website": "https://www.energieagentur-kreiska.de", "wheelchair": "limited"}}, {"type": "node", "id": 5246032089, "lat": 48.7465708, "lon": 9.1078081, "tags": {"addr:city": "Stuttgart", "addr:housenumber": "5c", "addr:postcode": "70569", "addr:street": "Pfaffenwaldring", "building:level": "4", "description": "Gesch\u00e4ftsstelle - Haus der Studierenden\n---\nstuvus ist die Abk\u00fcrzung f\u00fcr \u201eStudierendenvertretung Universit\u00e4t Stuttgart\u201c. Wir sind seit dem Fr\u00fchjahr 2013 deine Interessenvertretung hier an der Uni und gew\u00e4hrleisten die Selbstorganisation der Studierenden.", "email": "info@stuvus.uni-stuttgart.de", "level": "4", "name": "stuvus - Studierendenvertretung Universit\u00e4t Stuttgart", "office": "quango", "opening_hours": "Mo-Fr 09:00-11:00; Mo-Th 14:00-16:00", "phone": "+4971168583055", "website": "https://stuvus.uni-stuttgart.de", "wheelchair": "yes"}}, {"type": "node", "id": 5485910825, "lat": 47.8067783, "lon": 7.6296282, "tags": {"addr:city": "M\u00fcllheim", "addr:country": "DE", "addr:housenumber": "1", "addr:postcode": "79379", "addr:street": "Marktstra\u00dfe", "name": "Stadtwerke M\u00fcllheim-Staufen", "office": "energy_supplier", "source:addr": "LGL, www.lgl-bw.de"}}, {"type": "node", "id": 5710060113, "lat": 49.2010214, "lon": 9.5042183, "tags": {"addr:city": "\u00d6hringen", "addr:housenumber": "86", "addr:postcode": "74613", "addr:street": "Poststra\u00dfe", "contact:email": "info@stadtwerke-oehringen.de", "contact:fax": "+49 7941 401 401", "contact:phone": "+49 7941 401 0", "contact:website": "https://stadtwerke-oehringen.de", "name": "Stadtwerke \u00d6hringen", "office": "energy_supplier", "opening_hours": "Mo 12:00-17:00; Tu,Th 10:00-19:00; We 08:00-17:00; Fr 08:00-12:00; Sa 10:00-14:00", "operator": "Stadtwerke \u00d6hringen GmbH", "operator:type": "business", "wheelchair": "yes"}}, {"type": "node", "id": 6360615214, "lat": 49.1936108, "lon": 9.2331533, "tags": {"addr:city": "Neckarsulm", "addr:housenumber": "1", "addr:postcode": "74172", "addr:street": "Am Hungerberg", "name": "Stadtwerke Neckarsulm", "office": "energy_supplier", "website": "https://www.sw-neckarsulm.de/"}}, {"type": "node", "id": 7057899959, "lat": 49.0097299, "lon": 8.4041534, "tags": {"addr:city": "Karlsruhe", "addr:country": "DE", "addr:housenumber": "72-74", "addr:postcode": "76133", "addr:street": "Kaiserstra\u00dfe", "alt_name": "Schaufenster Karlsruhe", "check_date": "2019-12", "level": "0", "name": "Kundencenter Stadtwerke Karlsruhe", "note": "Kundenzentrum Stadtwerke und Tourist Information nochmal separat um \u00d6ffnungszeiten etc. besser trennen zu k\u00f6nnen", "office": "energy_supplier", "opening_hours": "Mo-Fr 09:30-17:00; Th 09:30-18:00; Sa 10:00-13:00", "operator": "Stadtwerke Karlsruhe GmbH", "start_date": "2019-11-26", "wheelchair": "yes"}}, {"type": "node", "id": 8467719716, "lat": 47.9168006, "lon": 8.2053979, "tags": {"addr:city": "Titisee-Neustadt", "addr:housenumber": "27", "addr:postcode": "79822", "addr:street": "Gutachstra\u00dfe", "description": "Energieversorgung Titisee-Neustadt GmbH", "name": "evtn", "office": "energy_supplier", "operator": "Stadt Titisee-Neustadt", "phone": "+49 7651 93311", "website": "www.ev-tn.de"}}, {"type": "node", "id": 8473783632, "lat": 47.9067954, "lon": 8.2155006, "tags": {"addr:city": "Titisee-Neustadt", "addr:housenumber": "36", "addr:postcode": "79822", "addr:street": "Sch\u00fctzenstra\u00dfe", "name": "Brennholz L\u00f6ffler", "office": "energy_supplier", "phone": "+49 7651 936861", "website": "www.loeffler-brennholz.de"}}, {"type": "node", "id": 8533553827, "lat": 48.6517949, "lon": 9.3973726, "tags": {"name": "Terranets BW Gasregelanlage Tachenhausen", "office": "energy_supplier"}}, {"type": "node", "id": 8779366332, "lat": 48.9458398, "lon": 9.4310198, "tags": {"addr:city": "Backnang", "addr:country": "DE", "addr:housenumber": "38", "addr:postcode": "71522", "addr:street": "Marktstra\u00dfe", "name": "S\u00fcwag-ServiceCenter", "office": "energy_supplier", "opening_hours": "Mo-Tu,Th 09:00-13:00,14:00-18:00; We,Fr 09:00-14:00; PH,Sa,Su off", "operator": "S\u00fcwag Vertrieb AG & Co. KG Sch\u00fctzenbleiche 9-11 65929 Frankfurt am Main", "phone": "+49 69 3107-0", "shop": "yes", "website": "https://www.suewag.de/"}}, {"type": "node", "id": 9894922889, "lat": 49.0393697, "lon": 9.3042213, "tags": {"addr:city": "Beilstein", "addr:country": "DE", "addr:housenumber": "1", "addr:postcode": "71717", "addr:street": "Burgerackerweg", "name": "Bioenergie Beilstein BW GmbH & Co. KG", "office": "energy_supplier"}}]}